GLOBALSTAR M001         
1 25162U 98008A   24227.54946586 -.00000080  00000+0  12769-3 0  9991
2 25162  52.0027 145.7055 0001843 341.1697 190.4290 12.38190797205838
GLOBALSTAR M004         
1 25163U 98008B   24227.41797191 -.00000045  00000+0  32628-3 0  9991
2 25163  51.9986 270.0163 0002696 331.2543  42.1755 12.63367794222918
GLOBALSTAR M002         
1 25164U 98008C   24227.45602890 -.00000033  00000+0  85322-3 0  9993
2 25164  52.0016 289.2824 0001008 298.2240  61.8478 11.61502801148423
GLOBALSTAR M003         
1 25165U 98008D   24227.52038236  .00000059  00000+0  15793-2 0  9990
2 25165  51.9922 297.8609 0007948  40.5174  63.5031 12.12027352196121
GLOBALSTAR M014         
1 25306U 98023A   24227.36564380 -.00000040  00000+0  69924-3 0  9997
2 25306  51.9803 219.1804 0000754 159.3260 348.6851 11.65470165155395
GLOBALSTAR M006         
1 25307U 98023B   24227.51133740 -.00000030  00000+0  94158-3 0  9993
2 25307  51.9915 259.8265 0003756 269.1169 260.5853 11.58164572181291
GLOBALSTAR M015         
1 25308U 98023C   24227.60388922 -.00000055  00000+0  42147-3 0  9996
2 25308  51.9858 344.0134 0012170 248.7842 124.3613 11.48848911158842
